[
  {
    "COMMENT": "GENERATED VIA SPACETRACK.ORG API",
    "ORIGINATOR": "18 SPCS",
    "NORAD_CAT_ID": "27386",
    "OBJECT_NAME": "ENVISAT",
    "OBJECT_TYPE": "PAYLOAD",
    "CLASSIFICATION_TYPE": "U",
    "INTLDES": "02009A",
    "EPOCH": "2023-08-14 10:45:37",
    "EPOCH_MICROSECONDS": "757952",
    "MEAN_MOTION": "14.38391701",
    "ECCENTRICITY": "0.0001373",
    "INCLINATION": "98.2353",
    "RA_OF_ASC_NODE": "194.0723",
    "ARG_OF_PERICENTER": "83.8439",
    "MEAN_ANOMALY": "26.5789",
    "EPHEMERIS_TYPE": "0",
    "ELEMENT_SET_NO": "999",
    "REV_AT_EPOCH": "12433",
    "BSTAR": "0.000065511",
    "MEAN_MOTION_DOT": "0.00000158",
    "MEAN_MOTION_DDOT": "0",
    "FILE": "3980093",
    "TLE_LINE0": "0 ENVISAT",
    "TLE_LINE1": "1 27386U 02009A   23226.44835368  .00000158  00000-0  65511-4 0  9999",
    "TLE_LINE2": "2 27386  98.2353 194.0723 0001373  83.8439  26.5789 14.38391701124330",
    "OBJECT_ID": "2002-009A",
    "OBJECT_NUMBER": "27386",
    "SEMIMAJOR_AXIS": "7141.954",
    "PERIOD": "100.112",
    "APOGEE": "764.800",
    "PERIGEE": "762.839",
    "DECAYED": "0"
  },
  {
    "COMMENT": "GENERATED VIA SPACETRACK.ORG API",
    "ORIGINATOR": "18 SPCS",
    "NORAD_CAT_ID": "27386",
    "OBJECT_NAME": "ENVISAT",
    "OBJECT_TYPE": "PAYLOAD",
    "CLASSIFICATION_TYPE": "U",
    "INTLDES": "02009A",
    "EPOCH": "2023-08-14 17:09:56",
    "EPOCH_MICROSECONDS": "336832",
    "MEAN_MOTION": "14.38391798",
    "ECCENTRICITY": "0.0001367",
    "INCLINATION": "98.2353",
    "RA_OF_ASC_NODE": "194.3284",
    "ARG_OF_PERICENTER": "83.7727",
    "MEAN_ANOMALY": "327.8167",
    "EPHEMERIS_TYPE": "0",
    "ELEMENT_SET_NO": "999",
    "REV_AT_EPOCH": "12437",
    "BSTAR": "0.000066298",
    "MEAN_MOTION_DOT": "0.00000161",
    "MEAN_MOTION_DDOT": "0",
    "FILE": "3980358",
    "TLE_LINE0": "0 ENVISAT",
    "TLE_LINE1": "1 27386U 02009A   23226.71523538  .00000161  00000-0  66298-4 0  9999",
    "TLE_LINE2": "2 27386  98.2353 194.3284 0001367  83.7727 327.8167 14.38391798124374",
    "OBJECT_ID": "2002-009A",
    "OBJECT_NUMBER": "27386",
    "SEMIMAJOR_AXIS": "7141.954",
    "PERIOD": "100.112",
    "APOGEE": "764.795",
    "PERIGEE": "762.843",
    "DECAYED": "0"
  },
  {
    "COMMENT": "GENERATED VIA SPACETRACK.ORG API",
    "ORIGINATOR": "18 SPCS",
    "NORAD_CAT_ID": "27386",
    "OBJECT_NAME": "ENVISAT",
    "OBJECT_TYPE": "PAYLOAD",
    "CLASSIFICATION_TYPE": "U",
    "INTLDES": "02009A",
    "EPOCH": "2023-08-14 22:01:54",
    "EPOCH_MICROSECONDS": "835392",
    "MEAN_MOTION": "14.38391882",
    "ECCENTRICITY": "0.0001368",
    "INCLINATION": "98.2353",
    "RA_OF_ASC_NODE": "194.5229",
    "ARG_OF_PERICENTER": "83.7551",
    "MEAN_ANOMALY": "297.1602",
    "EPHEMERIS_TYPE": "0",
    "ELEMENT_SET_NO": "999",
    "REV_AT_EPOCH": "12440",
    "BSTAR": "0.000065489",
    "MEAN_MOTION_DOT": "0.00000158",
    "MEAN_MOTION_DDOT": "0",
    "FILE": "3980607",
    "TLE_LINE0": "0 ENVISAT",
    "TLE_LINE1": "1 27386U 02009A   23226.91799578  .00000158  00000-0  65489-4 0  9997",
    "TLE_LINE2": "2 27386  98.2353 194.5229 0001368  83.7551 297.1602 14.38391882124402",
    "OBJECT_ID": "2002-009A",
    "OBJECT_NUMBER": "27386",
    "SEMIMAJOR_AXIS": "7141.954",
    "PERIOD": "100.112",
    "APOGEE": "764.796",
    "PERIGEE": "762.842",
    "DECAYED": "0"
  },
  {
    "COMMENT": "GENERATED VIA SPACETRACK.ORG API",
    "ORIGINATOR": "18 SPCS",
    "NORAD_CAT_ID": "27386",
    "OBJECT_NAME": "ENVISAT",
    "OBJECT_TYPE": "PAYLOAD",
    "CLASSIFICATION_TYPE": "U",
    "INTLDES": "02009A",
    "EPOCH": "2023-08-15 10:22:10",
    "EPOCH_MICROSECONDS": "683840",
    "MEAN_MOTION": "14.38392092",
    "ECCENTRICITY": "0.0001368",
    "INCLINATION": "98.2355",
    "RA_OF_ASC_NODE": "195.0162",
    "ARG_OF_PERICENTER": "83.7717",
    "MEAN_ANOMALY": "77.5718",
    "EPHEMERIS_TYPE": "0",
    "ELEMENT_SET_NO": "999",
    "REV_AT_EPOCH": "12447",
    "BSTAR": "0.000065888",
    "MEAN_MOTION_DOT": "0.00000159",
    "MEAN_MOTION_DDOT": "0",
    "FILE": "3980895",
    "TLE_LINE0": "0 ENVISAT",
    "TLE_LINE1": "1 27386U 02009A   23227.43206810  .00000159  00000-0  65888-4 0  9991",
    "TLE_LINE2": "2 27386  98.2355 195.0162 0001368  83.7717  77.5718 14.38392092124479",
    "OBJECT_ID": "2002-009A",
    "OBJECT_NUMBER": "27386",
    "SEMIMAJOR_AXIS": "7141.953",
    "PERIOD": "100.112",
    "APOGEE": "764.795",
    "PERIGEE": "762.841",
    "DECAYED": "0"
  },
  {
    "COMMENT": "GENERATED VIA SPACETRACK.ORG API",
    "ORIGINATOR": "18 SPCS",
    "NORAD_CAT_ID": "27386",
    "OBJECT_NAME": "ENVISAT",
    "OBJECT_TYPE": "PAYLOAD",
    "CLASSIFICATION_TYPE": "U",
    "INTLDES": "02009A",
    "EPOCH": "2023-08-15 11:48:06",
    "EPOCH_MICROSECONDS": "156288",
    "MEAN_MOTION": "14.38392048",
    "ECCENTRICITY": "0.0001369",
    "INCLINATION": "98.2355",
    "RA_OF_ASC_NODE": "195.0735",
    "ARG_OF_PERICENTER": "83.7103",
    "MEAN_ANOMALY": "26.4365",
    "EPHEMERIS_TYPE": "0",
    "ELEMENT_SET_NO": "999",
    "REV_AT_EPOCH": "12448",
    "BSTAR": "0.000062148",
    "MEAN_MOTION_DOT": "0.00000148",
    "MEAN_MOTION_DDOT": "0",
    "FILE": "3981177",
    "TLE_LINE0": "0 ENVISAT",
    "TLE_LINE1": "1 27386U 02009A   23227.49173792  .00000148  00000-0  62148-4 0  9993",
    "TLE_LINE2": "2 27386  98.2355 195.0735 0001369  83.7103  26.4365 14.38392048124488",
    "OBJECT_ID": "2002-009A",
    "OBJECT_NUMBER": "27386",
    "SEMIMAJOR_AXIS": "7141.953",
    "PERIOD": "100.112",
    "APOGEE": "764.796",
    "PERIGEE": "762.840",
    "DECAYED": "0"
  },
  {
    "COMMENT": "GENERATED VIA SPACETRACK.ORG API",
    "ORIGINATOR": "18 SPCS",
    "NORAD_CAT_ID": "27386",
    "OBJECT_NAME": "ENVISAT",
    "OBJECT_TYPE": "PAYLOAD",
    "CLASSIFICATION_TYPE": "U",
    "INTLDES": "02009A",
    "EPOCH": "2023-08-15 21:23:58",
    "EPOCH_MICROSECONDS": "578144",
    "MEAN_MOTION": "14.38392235",
    "ECCENTRICITY": "0.0001355",
    "INCLINATION": "98.2355",
    "RA_OF_ASC_NODE": "195.4572",
    "ARG_OF_PERICENTER": "83.779",
    "MEAN_ANOMALY": "295.9953",
    "EPHEMERIS_TYPE": "0",
    "ELEMENT_SET_NO": "999",
    "REV_AT_EPOCH": "12454",
    "BSTAR": "0.000064169",
    "MEAN_MOTION_DOT": "0.00000154",
    "MEAN_MOTION_DDOT": "0",
    "FILE": "3981472",
    "TLE_LINE0": "0 ENVISAT",
    "TLE_LINE1": "1 27386U 02009A   23227.89165021  .00000154  00000-0  64169-4 0  9995",
    "TLE_LINE2": "2 27386  98.2355 195.4572 0001355  83.7790 295.9953 14.38392235124549",
    "OBJECT_ID": "2002-009A",
    "OBJECT_NUMBER": "27386",
    "SEMIMAJOR_AXIS": "7141.952",
    "PERIOD": "100.112",
    "APOGEE": "764.785",
    "PERIGEE": "762.850",
    "DECAYED": "0"
  },
  {
    "COMMENT": "GENERATED VIA SPACETRACK.ORG API",
    "ORIGINATOR": "18 SPCS",
    "NORAD_CAT_ID": "27386",
    "OBJECT_NAME": "ENVISAT",
    "OBJECT_TYPE": "PAYLOAD",
    "CLASSIFICATION_TYPE": "U",
    "INTLDES": "02009A",
    "EPOCH": "2023-08-16 11:10:14",
    "EPOCH_MICROSECONDS": "249280",
    "MEAN_MOTION": "14.38392441",
    "ECCENTRICITY": "0.0001353",
    "INCLINATION": "98.2356",
    "RA_OF_ASC_NODE": "196.0078",
    "ARG_OF_PERICENTER": "83.6905",
    "MEAN_ANOMALY": "25.5769",
    "EPHEMERIS_TYPE": "0",
    "ELEMENT_SET_NO": "999",
    "REV_AT_EPOCH": "12462",
    "BSTAR": "0.00006293",
    "MEAN_MOTION_DOT": "0.0000015",
    "MEAN_MOTION_DDOT": "0",
    "FILE": "3981730",
    "TLE_LINE0": "0 ENVISAT",
    "TLE_LINE1": "1 27386U 02009A   23228.46544270  .00000150  00000-0  62930-4 0  9996",
    "TLE_LINE2": "2 27386  98.2356 196.0078 0001353  83.6905  25.5769 14.38392441124623",
    "OBJECT_ID": "2002-009A",
    "OBJECT_NUMBER": "27386",
    "SEMIMAJOR_AXIS": "7141.952",
    "PERIOD": "100.112",
    "APOGEE": "764.783",
    "PERIGEE": "762.850",
    "DECAYED": "0"
  },
  {
    "COMMENT": "GENERATED VIA SPACETRACK.ORG API",
    "ORIGINATOR": "18 SPCS",
    "NORAD_CAT_ID": "27386",
    "OBJECT_NAME": "ENVISAT",
    "OBJECT_TYPE": "PAYLOAD",
    "CLASSIFICATION_TYPE": "U",
    "INTLDES": "02009A",
    "EPOCH": "2023-08-16 16:28:26",
    "EPOCH_MICROSECONDS": "19264",
    "MEAN_MOTION": "14.38392519",
    "ECCENTRICITY": "0.0001352",
    "INCLINATION": "98.2356",
    "RA_OF_ASC_NODE": "196.2198",
    "ARG_OF_PERICENTER": "83.6972",
    "MEAN_ANOMALY": "89.1329",
    "EPHEMERIS_TYPE": "0",
    "ELEMENT_SET_NO": "999",
    "REV_AT_EPOCH": "12465",
    "BSTAR": "0.000063591",
    "MEAN_MOTION_DOT": "0.00000152",
    "MEAN_MOTION_DDOT": "0",
    "FILE": "3982085",
    "TLE_LINE0": "0 ENVISAT",
    "TLE_LINE1": "1 27386U 02009A   23228.68641226  .00000152  00000-0  63591-4 0  9995",
    "TLE_LINE2": "2 27386  98.2356 196.2198 0001352  83.6972  89.1329 14.38392519124658",
    "OBJECT_ID": "2002-009A",
    "OBJECT_NUMBER": "27386",
    "SEMIMAJOR_AXIS": "7141.952",
    "PERIOD": "100.112",
    "APOGEE": "764.782",
    "PERIGEE": "762.851",
    "DECAYED": "0"
  },
  {
    "COMMENT": "GENERATED VIA SPACETRACK.ORG API",
    "ORIGINATOR": "18 SPCS",
    "NORAD_CAT_ID": "27386",
    "OBJECT_NAME": "ENVISAT",
    "OBJECT_TYPE": "PAYLOAD",
    "CLASSIFICATION_TYPE": "U",
    "INTLDES": "02009A",
    "EPOCH": "2023-08-16 20:49:48",
    "EPOCH_MICROSECONDS": "522144",
    "MEAN_MOTION": "14.38392647",
    "ECCENTRICITY": "0.0001349",
    "INCLINATION": "98.2357",
    "RA_OF_ASC_NODE": "196.3939",
    "ARG_OF_PERICENTER": "83.6649",
    "MEAN_ANOMALY": "308.5192",
    "EPHEMERIS_TYPE": "0",
    "ELEMENT_SET_NO": "999",
    "REV_AT_EPOCH": "12468",
    "BSTAR": "0.000065423",
    "MEAN_MOTION_DOT": "0.00000158",
    "MEAN_MOTION_DDOT": "0",
    "FILE": "3982361",
    "TLE_LINE0": "0 ENVISAT",
    "TLE_LINE1": "1 27386U 02009A   23228.86792271  .00000158  00000-0  65423-4 0  9994",
    "TLE_LINE2": "2 27386  98.2357 196.3939 0001349  83.6649 308.5192 14.38392647124681",
    "OBJECT_ID": "2002-009A",
    "OBJECT_NUMBER": "27386",
    "SEMIMAJOR_AXIS": "7141.951",
    "PERIOD": "100.112",
    "APOGEE": "764.780",
    "PERIGEE": "762.853",
    "DECAYED": "0"
  }
]